[{"OBJECT_NAME":"TDRS 3","OBJECT_ID":"1988-091B","EPOCH":"2026-02-01T16:40:46.736832","MEAN_MOTION":1.00271345,"ECCENTRICITY":0.00440372,"INCLINATION":12.7041,"RA_OF_ASC_NODE":341.897,"ARG_OF_PERICENTER":349.2509,"MEAN_ANOMALY":2.1477,"EPHEMERIS_TYPE":0,"CLASSIFICATION_TYPE":"U","NORAD_CAT_ID":19548,"ELEMENT_SET_NO":999,"REV_AT_EPOCH":12402,"BSTAR":0,"MEAN_MOTION_DOT":-3.04e-6,"MEAN_MOTION_DDOT":0},{"OBJECT_NAME":"HST","OBJECT_ID":"1990-037B","EPOCH":"2026-02-01T22:01:39.909792","MEAN_MOTION":15.28899911,"ECCENTRICITY":0.00020038,"INCLINATION":28.4672,"RA_OF_ASC_NODE":283.9238,"ARG_OF_PERICENTER":77.62,"MEAN_ANOMALY":282.4619,"EPHEMERIS_TYPE":0,"CLASSIFICATION_TYPE":"U","NORAD_CAT_ID":20580,"ELEMENT_SET_NO":999,"REV_AT_EPOCH":76783,"BSTAR":0.0002475776,"MEAN_MOTION_DOT":7.382e-5,"MEAN_MOTION_DDOT":0},{"OBJECT_NAME":"TDRS 5","OBJECT_ID":"1991-054B","EPOCH":"2026-02-01T14:49:38.622432","MEAN_MOTION":1.00270541,"ECCENTRICITY":0.00136107,"INCLINATION":14.0874,"RA_OF_ASC_NODE":354.7801,"ARG_OF_PERICENTER":267.7471,"MEAN_ANOMALY":284.0481,"EPHEMERIS_TYPE":0,"CLASSIFICATION_TYPE":"U","NORAD_CAT_ID":21639,"ELEMENT_SET_NO":999,"REV_AT_EPOCH":12635,"BSTAR":0,"MEAN_MOTION_DOT":7.7e-7,"MEAN_MOTION_DDOT":0},{"OBJECT_NAME":"TDRS 6","OBJECT_ID":"1993-003B","EPOCH":"2026-02-01T18:24:15.186816","MEAN_MOTION":1.00272463,"ECCENTRICITY":0.00059902,"INCLINATION":14.1795,"RA_OF_ASC_NODE":358.062,"ARG_OF_PERICENTER":209.4498,"MEAN_ANOMALY":154.7495,"EPHEMERIS_TYPE":0,"CLASSIFICATION_TYPE":"U","NORAD_CAT_ID":22314,"ELEMENT_SET_NO":999,"REV_AT_EPOCH":12105,"BSTAR":0,"MEAN_MOTION_DOT":-3.02e-6,"MEAN_MOTION_DDOT":0},{"OBJECT_NAME":"TDRS 7","OBJECT_ID":"1995-035B","EPOCH":"2026-02-01T20:45:24.162336","MEAN_MOTION":1.00269025,"ECCENTRICITY":0.0005555,"INCLINATION":13.4327,"RA_OF_ASC_NODE":349.1191,"ARG_OF_PERICENTER":44.0662,"MEAN_ANOMALY":139.3647,"EPHEMERIS_TYPE":0,"CLASSIFICATION_TYPE":"U","NORAD_CAT_ID":23613,"ELEMENT_SET_NO":999,"REV_AT_EPOCH":11189,"BSTAR":0,"MEAN_MOTION_DOT":-2.45e-6,"MEAN_MOTION_DDOT":0},{"OBJECT_NAME":"ISS (ZARYA)","OBJECT_ID":"1998-067A","EPOCH":"2026-02-01T21:18:27.832032","MEAN_MOTION":15.48328191,"ECCENTRICITY":0.00111115,"INCLINATION":51.6312,"RA_OF_ASC_NODE":249.3384,"ARG_OF_PERICENTER":54.7712,"MEAN_ANOMALY":305.4314,"EPHEMERIS_TYPE":0,"CLASSIFICATION_TYPE":"U","NORAD_CAT_ID":25544,"ELEMENT_SET_NO":999,"REV_AT_EPOCH":55078,"BSTAR":0.00014305413,"MEAN_MOTION_DOT":7.269e-5,"MEAN_MOTION_DDOT":0},{"OBJECT_NAME":"TERRA","OBJECT_ID":"1999-068A","EPOCH":"2026-02-01T21:42:57.489984","MEAN_MOTION":14.60973328,"ECCENTRICITY":0.00011279,"INCLINATION":97.9667,"RA_OF_ASC_NODE":87.6929,"ARG_OF_PERICENTER":319.2821,"MEAN_ANOMALY":146.6824,"EPHEMERIS_TYPE":0,"CLASSIFICATION_TYPE":"U","NORAD_CAT_ID":25994,"ELEMENT_SET_NO":999,"REV_AT_EPOCH":38985,"BSTAR":0.00010420115,"MEAN_MOTION_DOT":4.66e-6,"MEAN_MOTION_DDOT":0},{"OBJECT_NAME":"TDRS 8","OBJECT_ID":"2000-034A","EPOCH":"2026-02-01T11:51:15.027552","MEAN_MOTION":1.00273115,"ECCENTRICITY":0.00054619,"INCLINATION":12.4687,"RA_OF_ASC_NODE":32.4554,"ARG_OF_PERICENTER":287.6373,"MEAN_ANOMALY":74.1487,"EPHEMERIS_TYPE":0,"CLASSIFICATION_TYPE":"U","NORAD_CAT_ID":26388,"ELEMENT_SET_NO":999,"REV_AT_EPOCH":9382,"BSTAR":0,"MEAN_MOTION_DOT":-2.06e-6,"MEAN_MOTION_DDOT":0},{"OBJECT_NAME":"TIMED","OBJECT_ID":"2001-055B","EPOCH":"2026-02-01T18:38:51.892800","MEAN_MOTION":14.94894284,"ECCENTRICITY":0.00019315,"INCLINATION":74.0696,"RA_OF_ASC_NODE":147.5939,"ARG_OF_PERICENTER":316.2636,"MEAN_ANOMALY":43.8395,"EPHEMERIS_TYPE":0,"CLASSIFICATION_TYPE":"U","NORAD_CAT_ID":26998,"ELEMENT_SET_NO":999,"REV_AT_EPOCH":31058,"BSTAR":0.0001636261,"MEAN_MOTION_DOT":1.746e-5,"MEAN_MOTION_DDOT":0},{"OBJECT_NAME":"AQUA","OBJECT_ID":"2002-022A","EPOCH":"2026-02-01T22:51:37.560384","MEAN_MOTION":14.61882673,"ECCENTRICITY":0.00017128,"INCLINATION":98.411,"RA_OF_ASC_NODE":359.6849,"ARG_OF_PERICENTER":59.1978,"MEAN_ANOMALY":337.0718,"EPHEMERIS_TYPE":0,"CLASSIFICATION_TYPE":"U","NORAD_CAT_ID":27424,"ELEMENT_SET_NO":999,"REV_AT_EPOCH":26351,"BSTAR":0.00022881446,"MEAN_MOTION_DOT":1.095e-5,"MEAN_MOTION_DDOT":0},{"OBJECT_NAME":"SORCE","OBJECT_ID":"2003-004A","EPOCH":"2026-02-01T19:36:54.002016","MEAN_MOTION":15.02784956,"ECCENTRICITY":0.00163095,"INCLINATION":39.9919,"RA_OF_ASC_NODE":313.5249,"ARG_OF_PERICENTER":164.1672,"MEAN_ANOMALY":195.9634,"EPHEMERIS_TYPE":0,"CLASSIFICATION_TYPE":"U","NORAD_CAT_ID":27651,"ELEMENT_SET_NO":999,"REV_AT_EPOCH":25152,"BSTAR":0.00025774935,"MEAN_MOTION_DOT":3.369e-5,"MEAN_MOTION_DDOT":0},{"OBJECT_NAME":"AURA","OBJECT_ID":"2004-026A","EPOCH":"2026-02-01T21:08:36.902688","MEAN_MOTION":14.61067122,"ECCENTRICITY":0.00014217,"INCLINATION":98.3253,"RA_OF_ASC_NODE":348.3684,"ARG_OF_PERICENTER":66.7921,"MEAN_ANOMALY":293.3429,"EPHEMERIS_TYPE":0,"CLASSIFICATION_TYPE":"U","NORAD_CAT_ID":28376,"ELEMENT_SET_NO":999,"REV_AT_EPOCH":14645,"BSTAR":0.00023518455,"MEAN_MOTION_DOT":1.107e-5,"MEAN_MOTION_DDOT":0},{"OBJECT_NAME":"SWIFT","OBJECT_ID":"2004-047A","EPOCH":"2026-02-01T14:46:33.462048","MEAN_MOTION":15.5565553,"ECCENTRICITY":0.00028117,"INCLINATION":20.5535,"RA_OF_ASC_NODE":141.0201,"ARG_OF_PERICENTER":216.4658,"MEAN_ANOMALY":143.5594,"EPHEMERIS_TYPE":0,"CLASSIFICATION_TYPE":"U","NORAD_CAT_ID":28485,"ELEMENT_SET_NO":999,"REV_AT_EPOCH":16563,"BSTAR":0.00072674124,"MEAN_MOTION_DOT":0.00053125,"MEAN_MOTION_DDOT":0},{"OBJECT_NAME":"THEMIS A","OBJECT_ID":"2007-004A","EPOCH":"2026-02-01T09:33:06.665184","MEAN_MOTION":0.87836077,"ECCENTRICITY":0.84208957,"INCLINATION":6.1532,"RA_OF_ASC_NODE":125.0839,"ARG_OF_PERICENTER":168.9477,"MEAN_ANOMALY":243.7603,"EPHEMERIS_TYPE":0,"CLASSIFICATION_TYPE":"U","NORAD_CAT_ID":30580,"ELEMENT_SET_NO":999,"REV_AT_EPOCH":4008,"BSTAR":0.001896971,"MEAN_MOTION_DOT":-3.79e-6,"MEAN_MOTION_DDOT":0},{"OBJECT_NAME":"THEMIS D","OBJECT_ID":"2007-004D","EPOCH":"2026-02-01T21:56:47.322240","MEAN_MOTION":0.87836778,"ECCENTRICITY":0.83727763,"INCLINATION":6.1798,"RA_OF_ASC_NODE":86.2011,"ARG_OF_PERICENTER":210.8309,"MEAN_ANOMALY":35.6715,"EPHEMERIS_TYPE":0,"CLASSIFICATION_TYPE":"U","NORAD_CAT_ID":30797,"ELEMENT_SET_NO":999,"REV_AT_EPOCH":3988,"BSTAR":0,"MEAN_MOTION_DOT":-4.42e-6,"MEAN_MOTION_DDOT":0},{"OBJECT_NAME":"THEMIS E","OBJECT_ID":"2007-004E","EPOCH":"2026-02-01T20:20:04.089120","MEAN_MOTION":0.87838279,"ECCENTRICITY":0.8377187,"INCLINATION":3.6203,"RA_OF_ASC_NODE":101.6095,"ARG_OF_PERICENTER":196.2996,"MEAN_ANOMALY":28.6019,"EPHEMERIS_TYPE":0,"CLASSIFICATION_TYPE":"U","NORAD_CAT_ID":30798,"ELEMENT_SET_NO":999,"REV_AT_EPOCH":6472,"BSTAR":0,"MEAN_MOTION_DOT":-4.39e-6,"MEAN_MOTION_DDOT":0},{"OBJECT_NAME":"FGRST (GLAST)","OBJECT_ID":"2008-029A","EPOCH":"2026-02-01T18:47:23.561376","MEAN_MOTION":15.23029322,"ECCENTRICITY":0.00086624,"INCLINATION":25.5828,"RA_OF_ASC_NODE":64.0701,"ARG_OF_PERICENTER":166.8251,"MEAN_ANOMALY":193.2514,"EPHEMERIS_TYPE":0,"CLASSIFICATION_TYPE":"U","NORAD_CAT_ID":33053,"ELEMENT_SET_NO":999,"REV_AT_EPOCH":97516,"BSTAR":0.0001491996,"MEAN_MOTION_DOT":3.95e-5,"MEAN_MOTION_DDOT":0}]
